{
  "type": "FeatureCollection",
  "features": [
    {
      "type": "Feature",
      "properties": {
        "norad_id": 33765,
        "name": "COSMOS 2251 DEB",
        "group": "cosmos-2251-debris",
        "lat": 32.321573892132704,
        "lon": -30.084064651420505,
        "alt_km": 544.4824792093677,
        "timestamp": "2025-12-18T21:31:51.397341+00:00",
        "meta_object_name": "COSMOS 2251 DEB",
        "meta_object_id": "1993-036N",
        "meta_epoch": "2025-12-18T05:46:16.497408",
        "meta_mean_motion": 15.10302931,
        "meta_eccentricity": 0.00649726,
        "meta_inclination": 74.0073,
        "meta_ra_of_asc_node": 161.7288,
        "meta_arg_of_pericenter": 252.8763,
        "meta_mean_anomaly": 285.1573,
        "meta_ephemeris_type": 0,
        "meta_classification_type": "U",
        "meta_norad_cat_id": 33765,
        "meta_element_set_no": 999,
        "meta_rev_at_epoch": 89701,
        "meta_bstar": 0.0015914457,
        "meta_mean_motion_dot": 0.00027482,
        "meta_mean_motion_ddot": 0,
        "tle_line1": "1 33765U 93036N   25352.24046872  .00027482  00000+0  15914-2 0  9999",
        "tle_line2": "2 33765  74.0073 161.7288 0064972 252.8763 285.1573 15.10302931897012"
      },
      "geometry": {
        "type": "Point",
        "coordinates": [
          -30.084064651420505,
          32.321573892132704
        ]
      }
    },
    {
      "type": "Feature",
      "properties": {
        "norad_id": 33766,
        "name": "COSMOS 2251 DEB",
        "group": "cosmos-2251-debris",
        "lat": 44.42188089810515,
        "lon": -72.32883673067143,
        "alt_km": 816.148726826832,
        "timestamp": "2025-12-18T21:31:51.397352+00:00",
        "meta_object_name": "COSMOS 2251 DEB",
        "meta_object_id": "1993-036P",
        "meta_epoch": "2025-12-18T07:31:31.162368",
        "meta_mean_motion": 14.34949925,
        "meta_eccentricity": 0.00644374,
        "meta_inclination": 74.1855,
        "meta_ra_of_asc_node": 124.8574,
        "meta_arg_of_pericenter": 326.6905,
        "meta_mean_anomaly": 33.02,
        "meta_ephemeris_type": 0,
        "meta_classification_type": "U",
        "meta_norad_cat_id": 33766,
        "meta_element_set_no": 999,
        "meta_rev_at_epoch": 87825,
        "meta_bstar": 0.00040575247,
        "meta_mean_motion_dot": 1.156e-05,
        "meta_mean_motion_ddot": 0,
        "tle_line1": "1 33766U 93036P   25352.31355512  .00001156  00000+0  40575-3 0  9994",
        "tle_line2": "2 33766  74.1855 124.8574 0064437 326.6905  33.0200 14.34949925878251"
      },
      "geometry": {
        "type": "Point",
        "coordinates": [
          -72.32883673067143,
          44.42188089810515
        ]
      }
    },
    {
      "type": "Feature",
      "properties": {
        "norad_id": 33768,
        "name": "COSMOS 2251 DEB",
        "group": "cosmos-2251-debris",
        "lat": 11.160055381769263,
        "lon": 26.700404457033756,
        "alt_km": 1299.9176613805303,
        "timestamp": "2025-12-18T21:31:51.397363+00:00",
        "meta_object_name": "COSMOS 2251 DEB",
        "meta_object_id": "1993-036R",
        "meta_epoch": "2025-12-18T01:49:15.367584",
        "meta_mean_motion": 13.58459409,
        "meta_eccentricity": 0.03665923,
        "meta_inclination": 74.0672,
        "meta_ra_of_asc_node": 211.256,
        "meta_arg_of_pericenter": 7.8348,
        "meta_mean_anomaly": 104.3308,
        "meta_ephemeris_type": 0,
        "meta_classification_type": "U",
        "meta_norad_cat_id": 33768,
        "meta_element_set_no": 999,
        "meta_rev_at_epoch": 83368,
        "meta_bstar": 0.00027935793,
        "meta_mean_motion_dot": 2.94e-06,
        "meta_mean_motion_ddot": 0,
        "tle_line1": "1 33768U 93036R   25352.07587231  .00000294  00000+0  27936-3 0  9992",
        "tle_line2": "2 33768  74.0672 211.2560 0366592   7.8348 104.3308 13.58459409833688"
      },
      "geometry": {
        "type": "Point",
        "coordinates": [
          26.700404457033756,
          11.160055381769263
        ]
      }
    },
    {
      "type": "Feature",
      "properties": {
        "norad_id": 33779,
        "name": "COSMOS 2251 DEB",
        "group": "cosmos-2251-debris",
        "lat": -3.0800187766617007,
        "lon": -20.33600658711888,
        "alt_km": 650.6430696136749,
        "timestamp": "2025-12-18T21:31:51.397374+00:00",
        "meta_object_name": "COSMOS 2251 DEB",
        "meta_object_id": "1993-036U",
        "meta_epoch": "2025-12-17T22:24:17.346240",
        "meta_mean_motion": 14.70573086,
        "meta_eccentricity": 0.00166188,
        "meta_inclination": 74.0441,
        "meta_ra_of_asc_node": 160.6501,
        "meta_arg_of_pericenter": 193.3041,
        "meta_mean_anomaly": 290.5943,
        "meta_ephemeris_type": 0,
        "meta_classification_type": "U",
        "meta_norad_cat_id": 33779,
        "meta_element_set_no": 999,
        "meta_rev_at_epoch": 88604,
        "meta_bstar": 0.0017088742,
        "meta_mean_motion_dot": 0.0001039,
        "meta_mean_motion_ddot": 0,
        "tle_line1": "1 33779U 93036U   25351.93353410  .00010390  00000+0  17089-2 0  9993",
        "tle_line2": "2 33779  74.0441 160.6501 0016618 193.3041 290.5943 14.70573086886042"
      },
      "geometry": {
        "type": "Point",
        "coordinates": [
          -20.33600658711888,
          -3.0800187766617007
        ]
      }
    },
    {
      "type": "Feature",
      "properties": {
        "norad_id": 33782,
        "name": "COSMOS 2251 DEB",
        "group": "cosmos-2251-debris",
        "lat": -1.9704032628772077,
        "lon": -94.40485386571102,
        "alt_km": 746.6470971403651,
        "timestamp": "2025-12-18T21:31:51.397385+00:00",
        "meta_object_name": "COSMOS 2251 DEB",
        "meta_object_id": "1993-036X",
        "meta_epoch": "2025-12-18T05:34:48.433728",
        "meta_mean_motion": 14.40462077,
        "meta_eccentricity": 0.00209359,
        "meta_inclination": 74.0331,
        "meta_ra_of_asc_node": 267.3882,
        "meta_arg_of_pericenter": 331.3967,
        "meta_mean_anomaly": 181.4634,
        "meta_ephemeris_type": 0,
        "meta_classification_type": "U",
        "meta_norad_cat_id": 33782,
        "meta_element_set_no": 999,
        "meta_rev_at_epoch": 88205,
        "meta_bstar": 0.00032086242,
        "meta_mean_motion_dot": 9.96e-06,
        "meta_mean_motion_ddot": 0,
        "tle_line1": "1 33782U 93036X   25352.23250502  .00000996  00000+0  32086-3 0  9995",
        "tle_line2": "2 33782  74.0331 267.3882 0020935 331.3967 181.4634 14.40462077882055"
      },
      "geometry": {
        "type": "Point",
        "coordinates": [
          -94.40485386571102,
          -1.9704032628772077
        ]
      }
    },
    {
      "type": "Feature",
      "properties": {
        "norad_id": 33785,
        "name": "COSMOS 2251 DEB",
        "group": "cosmos-2251-debris",
        "lat": 21.699435061636823,
        "lon": -138.75777488831483,
        "alt_km": 674.3915279584753,
        "timestamp": "2025-12-18T21:31:51.397396+00:00",
        "meta_object_name": "COSMOS 2251 DEB",
        "meta_object_id": "1993-036AA",
        "meta_epoch": "2025-12-18T06:24:57.432096",
        "meta_mean_motion": 14.7060956,
        "meta_eccentricity": 0.00228005,
        "meta_inclination": 73.8675,
        "meta_ra_of_asc_node": 49.0905,
        "meta_arg_of_pericenter": 347.4315,
        "meta_mean_anomaly": 76.9021,
        "meta_ephemeris_type": 0,
        "meta_classification_type": "U",
        "meta_norad_cat_id": 33785,
        "meta_element_set_no": 999,
        "meta_rev_at_epoch": 88588,
        "meta_bstar": 0.0015721766,
        "meta_mean_motion_dot": 9.579e-05,
        "meta_mean_motion_ddot": 0,
        "tle_line1": "1 33785U 93036AA  25352.26733139  .00009579  00000+0  15722-2 0  9996",
        "tle_line2": "2 33785  73.8675  49.0905 0022800 347.4315  76.9021 14.70609560885880"
      },
      "geometry": {
        "type": "Point",
        "coordinates": [
          -138.75777488831483,
          21.699435061636823
        ]
      }
    },
    {
      "type": "Feature",
      "properties": {
        "norad_id": 33789,
        "name": "COSMOS 2251 DEB",
        "group": "cosmos-2251-debris",
        "lat": -32.35472927496764,
        "lon": 66.52872067618362,
        "alt_km": 1060.5514105657294,
        "timestamp": "2025-12-18T21:31:51.397407+00:00",
        "meta_object_name": "COSMOS 2251 DEB",
        "meta_object_id": "1993-036AE",
        "meta_epoch": "2025-12-18T06:26:23.392320",
        "meta_mean_motion": 13.88808166,
        "meta_eccentricity": 0.02399569,
        "meta_inclination": 74.0645,
        "meta_ra_of_asc_node": 78.0233,
        "meta_arg_of_pericenter": 192.4377,
        "meta_mean_anomaly": 229.2869,
        "meta_ephemeris_type": 0,
        "meta_classification_type": "U",
        "meta_norad_cat_id": 33789,
        "meta_element_set_no": 999,
        "meta_rev_at_epoch": 85172,
        "meta_bstar": 0.000570237,
        "meta_mean_motion_dot": 8.44e-06,
        "meta_mean_motion_ddot": 0,
        "tle_line1": "1 33789U 93036AE  25352.26832630  .00000844  00000+0  57024-3 0  9994",
        "tle_line2": "2 33789  74.0645  78.0233 0239956 192.4377 229.2869 13.88808166851728"
      },
      "geometry": {
        "type": "Point",
        "coordinates": [
          66.52872067618362,
          -32.35472927496764
        ]
      }
    }
  ]
}